{"type": "FeatureCollection", "features": [ {"type": "Feature", "properties": {"norad_id": 35242, "name": "FENGYUN 1C DEB", "group": "fengyun-1c-debris", "lat": 72.3699611533173, "lon": 20.343795271975942, "alt_km": 1001.4666408071789, "timestamp": "2025-12-27T07:26:25.509740+00:00", "meta": {"OBJECT_NAME": "FENGYUN 1C DEB", "OBJECT_ID": "1999-025DRA", "EPOCH": "2025-12-25T10:45:54.992160", "MEAN_MOTION": 13.52374015, "ECCENTRICITY": 0.0301773, "INCLINATION": 99.9687, "RA_OF_ASC_NODE": 52.0722, "ARG_OF_PERICENTER": 157.5185, "MEAN_ANOMALY": 223.2183, "EPHEMERIS_TYPE": 0, "CLASSIFICATION_TYPE": "U", "NORAD_CAT_ID": 35242, "ELEMENT_SET_NO": 999, "REV_AT_EPOCH": 58299, "BSTAR": 0.0013323, "MEAN_MOTION_DOT": 1.128e-05, "MEAN_MOTION_DDOT": 0}, "tle": {"line1": "1 35242U 99025DRA 25359.44855315  .00001128  00000+0  13323-2 0  9995", "line2": "2 35242  99.9687  52.0722 0301773 157.5185 223.2183 13.52374015582992"}}, "geometry": {"type": "Point", "coordinates": [20.343795271975942, 72.3699611533173]}}, {"type": "Feature", "properties": {"norad_id": 35243, "name": "FENGYUN 1C DEB", "group": "fengyun-1c-debris", "lat": -5.414739464298164, "lon": 82.74750380266325, "alt_km": 646.2102788544953, "timestamp": "2025-12-27T07:26:25.509750+00:00", "meta": {"OBJECT_NAME": "FENGYUN 1C DEB", "OBJECT_ID": "1999-025DRB", "EPOCH": "2025-12-26T04:01:13.904256", "MEAN_MOTION": 14.87495356, "ECCENTRICITY": 0.0065605, "INCLINATION": 98.878, "RA_OF_ASC_NODE": 80.6216, "ARG_OF_PERICENTER": 214.3312, "MEAN_ANOMALY": 145.3653, "EPHEMERIS_TYPE": 0, "CLASSIFICATION_TYPE": "U", "NORAD_CAT_ID": 35243, "ELEMENT_SET_NO": 999, "REV_AT_EPOCH": 91200, "BSTAR": 0.0023914, "MEAN_MOTION_DOT": 0.00022546, "MEAN_MOTION_DDOT": 0}, "tle": {"line1": "1 35243U 99025DRB 25360.16752204  .00022546  00000+0  23914-2 0  9994", "line2": "2 35243  98.8780  80.6216 0065605 214.3312 145.3653 14.87495356912001"}}, "geometry": {"type": "Point", "coordinates": [82.74750380266325, -5.414739464298164]}}, {"type": "Feature", "properties": {"norad_id": 35244, "name": "FENGYUN 1C DEB", "group": "fengyun-1c-debris", "lat": 72.49090752877461, "lon": 11.639941502126044, "alt_km": 824.9791577418418, "timestamp": "2025-12-27T07:26:25.509772+00:00", "meta": {"OBJECT_NAME": "FENGYUN 1C DEB", "OBJECT_ID": "1999-025DRC", "EPOCH": "2025-12-26T20:50:38.824224", "MEAN_MOTION": 14.06654549, "ECCENTRICITY": 0.00719835, "INCLINATION": 98.8393, "RA_OF_ASC_NODE": 40.7633, "ARG_OF_PERICENTER": 118.2477, "MEAN_ANOMALY": 242.5982, "EPHEMERIS_TYPE": 0, "CLASSIFICATION_TYPE": "U", "NORAD_CAT_ID": 35244, "ELEMENT_SET_NO": 999, "REV_AT_EPOCH": 66020, "BSTAR": 0.00043974829, "MEAN_MOTION_DOT": 7.04e-06, "MEAN_MOTION_DDOT": 0}, "tle": {"line1": "1 35244U 99025DRC 25360.86850491  .00000704  00000+0  43975-3 0  9991", "line2": "2 35244  98.8393  40.7633 0071983 118.2477 242.5982 14.06654549660201"}}, "geometry": {"type": "Point", "coordinates": [11.639941502126044, 72.49090752877461]}}, {"type": "Feature", "properties": {"norad_id": 35245, "name": "FENGYUN 1C DEB", "group": "fengyun-1c-debris", "lat": -46.47914286912716, "lon": 96.74299649466157, "alt_km": 849.7713588562137, "timestamp": "2025-12-27T07:26:25.509782+00:00", "meta": {"OBJECT_NAME": "FENGYUN 1C DEB", "OBJECT_ID": "1999-025DRD", "EPOCH": "2025-12-26T11:34:20.371008", "MEAN_MOTION": 14.13173894, "ECCENTRICITY": 0.0060254, "INCLINATION": 99.0834, "RA_OF_ASC_NODE": 86.2049, "ARG_OF_PERICENTER": 232.0235, "MEAN_ANOMALY": 190.8873, "EPHEMERIS_TYPE": 0, "CLASSIFICATION_TYPE": "U", "NORAD_CAT_ID": 35245, "ELEMENT_SET_NO": 999, "REV_AT_EPOCH": 87971, "BSTAR": 0.0018122, "MEAN_MOTION_DOT": 3.404e-05, "MEAN_MOTION_DDOT": 0}, "tle": {"line1": "1 35245U 99025DRD 25360.48218022  .00003404  00000+0  18122-2 0  9993", "line2": "2 35245  99.0834  86.2049 0060254 232.0235 190.8873 14.13173894879716"}}, "geometry": {"type": "Point", "coordinates": [96.74299649466157, -46.47914286912716]}}, {"type": "Feature", "properties": {"norad_id": 36147, "name": "FENGYUN 1C DEB", "group": "fengyun-1c-debris", "lat": 78.84290541143159, "lon": -63.05484214928606, "alt_km": 1273.3509426961, "timestamp": "2025-12-27T07:26:25.509792+00:00", "meta": {"OBJECT_NAME": "FENGYUN 1C DEB", "OBJECT_ID": "1999-025DRU", "EPOCH": "2025-12-20T21:33:23.692032", "MEAN_MOTION": 13.46553882, "ECCENTRICITY": 0.0442924, "INCLINATION": 98.5255, "RA_OF_ASC_NODE": 61.9559, "ARG_OF_PERICENTER": 242.0095, "MEAN_ANOMALY": 113.5561, "EPHEMERIS_TYPE": 0, "CLASSIFICATION_TYPE": "U", "NORAD_CAT_ID": 36147, "ELEMENT_SET_NO": 999, "REV_AT_EPOCH": 60107, "BSTAR": 0.0014721, "MEAN_MOTION_DOT": 1.576e-05, "MEAN_MOTION_DDOT": 0}, "tle": {"line1": "1 36147U 99025DRU 25354.89819088  .00001576  00000+0  14721-2 0  9991", "line2": "2 36147  98.5255  61.9559 0442924 242.0095 113.5561 13.46553882601070"}}, "geometry": {"type": "Point", "coordinates": [-63.05484214928606, 78.84290541143159]}}, {"type": "Feature", "properties": {"norad_id": 36148, "name": "FENGYUN 1C DEB", "group": "fengyun-1c-debris", "lat": -80.38502677888539, "lon": -30.34441202661427, "alt_km": 801.5955737124195, "timestamp": "2025-12-27T07:26:25.509802+00:00", "meta": {"OBJECT_NAME": "FENGYUN 1C DEB", "OBJECT_ID": "1999-025DRV", "EPOCH": "2025-12-19T19:33:59.340096", "MEAN_MOTION": 13.85003317, "ECCENTRICITY": 0.02860047, "INCLINATION": 98.4226, "RA_OF_ASC_NODE": 203.9107, "ARG_OF_PERICENTER": 330.6122, "MEAN_ANOMALY": 27.9209, "EPHEMERIS_TYPE": 0, "CLASSIFICATION_TYPE": "U", "NORAD_CAT_ID": 36148, "ELEMENT_SET_NO": 999, "REV_AT_EPOCH": 90342, "BSTAR": 0.0023912593, "MEAN_MOTION_DOT": 3.68e-05, "MEAN_MOTION_DDOT": 0}, "tle": {"line1": "1 36148U 99025DRV 25353.81527014  .00003680  00000+0  23913-2 0  9999", "line2": "2 36148  98.4226 203.9107 0286004 330.6122  27.9209 13.85003317903422"}}, "geometry": {"type": "Point", "coordinates": [-30.34441202661427, -80.38502677888539]}}, {"type": "Feature", "properties": {"norad_id": 36152, "name": "FENGYUN 1C DEB", "group": "fengyun-1c-debris", "lat": -29.841896395278933, "lon": 45.96185765914918, "alt_km": 877.970819769127, "timestamp": "2025-12-27T07:26:25.509813+00:00", "meta": {"OBJECT_NAME": "FENGYUN 1C DEB", "OBJECT_ID": "1999-025DRZ", "EPOCH": "2025-12-18T08:24:14.818464", "MEAN_MOTION": 14.17273973, "ECCENTRICITY": 0.00557903, "INCLINATION": 98.7554, "RA_OF_ASC_NODE": 32.0659, "ARG_OF_PERICENTER": 196.1632, "MEAN_ANOMALY": 163.7765, "EPHEMERIS_TYPE": 0, "CLASSIFICATION_TYPE": "U", "NORAD_CAT_ID": 36152, "ELEMENT_SET_NO": 999, "REV_AT_EPOCH": 64236, "BSTAR": 0.00095568478, "MEAN_MOTION_DOT": 1.917e-05, "MEAN_MOTION_DDOT": 0}, "tle": {"line1": "1 36152U 99025DRZ 25352.35017151  .00001917  00000+0  95568-3 0  9995", "line2": "2 36152  98.7554  32.0659 0055790 196.1632 163.7765 14.17273973642366"}}, "geometry": {"type": "Point", "coordinates": [45.96185765914918, -29.841896395278933]}}, {"type": "Feature", "properties": {"norad_id": 36160, "name": "FENGYUN 1C DEB", "group": "fengyun-1c-debris", "lat": -59.472245941947136, "lon": -144.32238338080796, "alt_km": 952.2220535352681, "timestamp": "2025-12-27T07:26:25.509823+00:00", "meta": {"OBJECT_NAME": "FENGYUN 1C DEB", "OBJECT_ID": "1999-025DSH", "EPOCH": "2025-12-25T08:09:13.972320", "MEAN_MOTION": 14.13230256, "ECCENTRICITY": 0.0135692, "INCLINATION": 98.139, "RA_OF_ASC_NODE": 199.8398, "ARG_OF_PERICENTER": 116.0735, "MEAN_ANOMALY": 245.4478, "EPHEMERIS_TYPE": 0, "CLASSIFICATION_TYPE": "U", "NORAD_CAT_ID": 36160, "ELEMENT_SET_NO": 999, "REV_AT_EPOCH": 60230, "BSTAR": 0.00022345, "MEAN_MOTION_DOT": 4.2e-06, "MEAN_MOTION_DDOT": 0}, "tle": {"line1": "1 36160U 99025DSH 25359.33974505  .00000420  00000+0  22345-3 0  9995", "line2": "2 36160  98.1390 199.8398 0135692 116.0735 245.4478 14.13230256602306"}}, "geometry": {"type": "Point", "coordinates": [-144.32238338080796, -59.472245941947136]}}, {"type": "Feature", "properties": {"norad_id": 36163, "name": "FENGYUN 1C DEB", "group": "fengyun-1c-debris", "lat": 34.592865726549306, "lon": 33.07388685503563, "alt_km": 705.5047310674172, "timestamp": "2025-12-27T07:26:25.509833+00:00", "meta": {"OBJECT_NAME": "FENGYUN 1C DEB", "OBJECT_ID": "1999-025DSL", "EPOCH": "2025-12-19T12:50:06.955008", "MEAN_MOTION": 14.59242955, "ECCENTRICITY": 0.0039086, "INCLINATION": 99.0787, "RA_OF_ASC_NODE": 198.2455, "ARG_OF_PERICENTER": 50.867, "MEAN_ANOMALY": 309.5991, "EPHEMERIS_TYPE": 0, "CLASSIFICATION_TYPE": "U", "NORAD_CAT_ID": 36163, "ELEMENT_SET_NO": 999, "REV_AT_EPOCH": 89286, "BSTAR": 0.0021304, "MEAN_MOTION_DOT": 0.0001012, "MEAN_MOTION_DDOT": 0}, "tle": {"line1": "1 36163U 99025DSL 25353.53480272  .00010120  00000+0  21304-2 0  9998", "line2": "2 36163  99.0787 198.2455 0039086  50.8670 309.5991 14.59242955892862"}}, "geometry": {"type": "Point", "coordinates": [33.07388685503563, 34.592865726549306]}}, {"type": "Feature", "properties": {"norad_id": 36167, "name": "FENGYUN 1C DEB", "group": "fengyun-1c-debris", "lat": 74.60933593403257, "lon": -125.17856446154133, "alt_km": 746.7848537419868, "timestamp": "2025-12-27T07:26:25.509843+00:00", "meta": {"OBJECT_NAME": "FENGYUN 1C DEB", "OBJECT_ID": "1999-025DSQ", "EPOCH": "2025-12-21T23:29:57.430752", "MEAN_MOTION": 14.49314917, "ECCENTRICITY": 0.00688049, "INCLINATION": 98.8145, "RA_OF_ASC_NODE": 263.5651, "ARG_OF_PERICENTER": 216.098, "MEAN_ANOMALY": 143.5557, "EPHEMERIS_TYPE": 0, "CLASSIFICATION_TYPE": "U", "NORAD_CAT_ID": 36167, "ELEMENT_SET_NO": 999, "REV_AT_EPOCH": 67413, "BSTAR": 0.00094360862, "MEAN_MOTION_DOT": 3.662e-05, "MEAN_MOTION_DDOT": 0}, "tle": {"line1": "1 36167U 99025DSQ 25355.97913693  .00003662  00000+0  94361-3 0  9997", "line2": "2 36167  98.8145 263.5651 0068804 216.0980 143.5557 14.49314917674134"}}, "geometry": {"type": "Point", "coordinates": [-125.17856446154133, 74.60933593403257]}}]}